{
  "norad_id": 55774,
  "name": "STARLINK-5812",
  "history": [
    {
      "epoch": "2026-03-28T15:30:02.011968Z",
      "apogee_km": 574.4696777412046,
      "perigee_km": 569.6170618070282,
      "latitude_deg": 4.337108269628295e-05,
      "longitude_deg": 118.0464113389471,
      "height_km": 574.5962899364919,
      "semi_major_axis_km": 6950.180369774116,
      "eccentricity": 0.0003491,
      "inclination_deg": 70.0004,
      "raan_deg": 176.6181,
      "arg_perigee_deg": 267.048,
      "mean_anomaly_deg": 93.028,
      "mean_motion_rev_day": 14.98334049
    },
    {
      "epoch": "2026-03-28T23:30:42.462432Z",
      "apogee_km": 574.4477009135753,
      "perigee_km": 569.657630196074,
      "latitude_deg": 2.5787147242419435e-05,
      "longitude_deg": -3.2931485377175296,
      "height_km": 574.6080663780867,
      "semi_major_axis_km": 6950.189665554824,
      "eccentricity": 0.0003446,
      "inclination_deg": 70.0006,
      "raan_deg": 175.7761,
      "arg_perigee_deg": 266.9493,
      "mean_anomaly_deg": 93.1272,
      "mean_motion_rev_day": 14.98331043
    },
    {
      "epoch": "2026-03-29T23:32:43.090656Z",
      "apogee_km": 574.4529929970286,
      "perigee_km": 569.6490230458858,
      "latitude_deg": -8.584794110263237e-06,
      "longitude_deg": -7.307299183548218,
      "height_km": 574.722653073702,
      "semi_major_axis_km": 6950.188008021457,
      "eccentricity": 0.0003456,
      "inclination_deg": 70.0004,
      "raan_deg": 173.2516,
      "arg_perigee_deg": 264.1768,
      "mean_anomaly_deg": 95.8997,
      "mean_motion_rev_day": 14.98331579
    },
    {
      "epoch": "2026-03-30T05:57:14.687424Z",
      "apogee_km": 574.3720595126379,
      "perigee_km": 569.6046905129015,
      "latitude_deg": 4.546918996974038e-06,
      "longitude_deg": -104.37544644795638,
      "height_km": 574.5774231401064,
      "semi_major_axis_km": 6950.12537501277,
      "eccentricity": 0.00034297,
      "inclination_deg": 70.0005,
      "raan_deg": 172.5783,
      "arg_perigee_deg": 266.1246,
      "mean_anomaly_deg": 93.9521,
      "mean_motion_rev_day": 14.98351833
    },
    {
      "epoch": "2026-03-30T12:21:46.593504Z",
      "apogee_km": 574.4401833170386,
      "perigee_km": 569.5368697580661,
      "latitude_deg": 8.22939832126259e-06,
      "longitude_deg": 158.5553105509886,
      "height_km": 574.5944730860032,
      "semi_major_axis_km": 6950.125526537552,
      "eccentricity": 0.00035275,
      "inclination_deg": 70.0001,
      "raan_deg": 171.9052,
      "arg_perigee_deg": 265.8378,
      "mean_anomaly_deg": 94.2378,
      "mean_motion_rev_day": 14.98351784
    },
    {
      "epoch": "2026-03-30T15:34:02.486496Z",
      "apogee_km": 574.3677971646875,
      "perigee_km": 569.6030712287002,
      "latitude_deg": -1.5419310413178173e-05,
      "longitude_deg": 110.02048070868899,
      "height_km": 574.5738765524541,
      "semi_major_axis_km": 6950.122434196694,
      "eccentricity": 0.00034278,
      "inclination_deg": 70.0004,
      "raan_deg": 171.5682,
      "arg_perigee_deg": 266.1369,
      "mean_anomaly_deg": 93.9398,
      "mean_motion_rev_day": 14.98352784
    },
    {
      "epoch": "2026-03-31T07:35:23.898048Z",
      "apogee_km": 574.236214669806,
      "perigee_km": 569.8846960430074,
      "latitude_deg": 6.117743714952943e-05,
      "longitude_deg": -132.65963090362948,
      "height_km": 574.5256488035584,
      "semi_major_axis_km": 6950.197455356407,
      "eccentricity": 0.00031305,
      "inclination_deg": 70.0006,
      "raan_deg": 169.8853,
      "arg_perigee_deg": 269.0106,
      "mean_anomaly_deg": 91.0695,
      "mean_motion_rev_day": 14.98328524
    },
    {
      "epoch": "2026-04-01T09:13:33.149280Z",
      "apogee_km": 574.2691643511998,
      "perigee_km": 569.8446709032387,
      "latitude_deg": -3.246291620571016e-05,
      "longitude_deg": -160.94383929527487,
      "height_km": 574.524260988099,
      "semi_major_axis_km": 6950.193917627219,
      "eccentricity": 0.0003183,
      "inclination_deg": 70.0006,
      "raan_deg": 167.1925,
      "arg_perigee_deg": 268.9728,
      "mean_anomaly_deg": 91.1066,
      "mean_motion_rev_day": 14.98329668
    },
    {
      "epoch": "2026-04-02T10:51:41.006880Z",
      "apogee_km": 574.3743562965165,
      "perigee_km": 569.6582602676481,
      "latitude_deg": 3.467338070737011e-05,
      "longitude_deg": 170.77783284933352,
      "height_km": 574.5472978699299,
      "semi_major_axis_km": 6950.153308282082,
      "eccentricity": 0.00033928,
      "inclination_deg": 70.0002,
      "raan_deg": 164.4997,
      "arg_perigee_deg": 267.4936,
      "mean_anomaly_deg": 92.5835,
      "mean_motion_rev_day": 14.983428
    }
  ]
}